#dP2018 12 15  0  0  0.00000000      96 __u+U ITR00 FIT  IAC
## 2031 518400.00000000   900.00000000 58467 0.0000000000000
+   98   C01C02C03C04C05C06C07C08C09C10C11C12C13C14C30C32E01
+        E02E03E04E05E07E08E09E11E12E13E14E15E18E19E21E24E25
+        E26E27E30E31E33E36G01G02G03G04G05G06G07G08G09G10G11
+        G12G13G14G15G16G17G18G19G20G21G22G23G24G26G27G28G29
+        G30G31G32J01J02J03J07R01R02R03R04R05R07R08R09R10R11
+        R13R14R15R16R17R18R19R20R21R22R23R24R26  0  0  0  0
++        12 12 12 12 12  9  9  9  8  8  8  7  9  8 19  0  5
++         5  5  5  5  5  5  5  5  5  6  5  6  5  5  5  5  5
++         4  5  5  5  6  6  3  3  3  4  3  3  3  3  3  3  3
++         3  3  3  3  3  3  3  3  3  3  3  3  3  3  3  4  3
++         3  3  3 10 10 10 15  5  5  5  6  6  6  6  5  5  5
++         6  5  5  5  5  5  5  6  5  5  5  6  9  0  0  0  0
%c M  cc GPS ccc cccc cccc cccc cccc ccccc ccccc ccccc ccccc
%c cc cc ccc ccc cccc cccc cccc cccc ccccc ccccc ccccc ccccc
%f  0.0000000  0.000000000  0.00000000000  0.000000000000000
%f  0.0000000  0.000000000  0.00000000000  0.000000000000000
%i    0    0    0    0      0      0      0      0         0
%i    0    0    0    0      0      0      0      0         0
/* INFORMATION & ANALYSIS CENTER (IAC) OF MCC   (RAPID DATA)
/* S/V CLOCKS ARE ALIGNED TO GPS & GLONASS TIME RESPECTIVELY
/* USING THE BROADCAST EPHEMERIS                            
/* PCV:IGS14_2029 OL/AL:FES2004  NONE     YN ORB:CoN CLK:CoN
*  2018 12 15  9 15  0.00000000
PC01 -32344.128623  27076.660798   -223.408912    -36.614393
PC02   4389.580951  41897.724556   -758.923218   -172.349332
PC03 -14696.545704  39498.203626   -374.932304   -192.969114
PC04 -39660.567507  14390.703141   -244.763216   -253.666130
PC05  21899.417680  36011.917778   -742.857271     39.391938
PC06 -24639.772624  30448.671472  15428.012549    155.826242
PC07 -10973.473355  35539.267755  20400.015195   -184.581785
PC08 -11143.000849  19017.691631 -35879.416218     62.534340
PC09 -10606.197937  30008.336864  27667.321564    367.596249
PC10    894.391566  41842.260981   6723.439969   -322.966248
PC11  21498.782014   7970.354105 -15798.241122    -88.623157
PC12  -7913.331071  15536.836295 -21743.828883    276.814633
PC13   2758.113600  25513.739700 -33350.168255   -429.970237
PC14   5274.267004  20649.562753  18038.276877    465.432606
PC30 -13455.516474 -12726.431809  20875.845788 999999.999999
PC32      0.000000      0.000000      0.000000 999999.999999
PE01  11506.134007 -14716.579174 -22955.645092   -499.429372
PE02 -11493.861471  14745.555256  22950.528354     39.211818
PE03 -22177.377148  19356.582381  -3180.307190   -110.974047
PE04   9116.272121 -24095.410448 -14580.851408   -179.379534
PE05 -22314.989356   3241.000625 -19181.692783    142.237300
PE07   9397.872593  14712.000211  23904.540172    -94.004520
PE08  -8920.868425  24108.029070  14682.658713   6443.105291
PE09  -9437.926285 -14516.915072 -24007.551905   6587.955763
PE11 -20332.401490 -15362.346316  15051.085533   5716.117079
PE12    787.400597 -16641.279465  24473.605690   5720.885860
PE13  20315.878271  15248.172263 -15184.292491    208.009612
PE14 -21899.840322  -1384.571028  10813.508963   6474.645238
PE15   -207.513209  16642.279184 -24465.875262    755.023518
PE18  22837.170371   9602.119584 -20170.829590   5681.090671
PE19  22764.428541 -18228.261940   5078.822711     -9.885018
PE21  17557.710799   7569.373020 -22593.684480   -509.467227
PE24 -13246.090972 -24778.286506   9341.852403   6337.675876
PE25 -17564.515588  -7602.233995  22590.107639   1953.604758
PE26  28982.165886   5251.520769   2883.429940   5133.584857
PE27  13098.575824  25036.856891  -8803.687819    570.002988
PE30   1160.558722  27963.440024   9617.561556   5268.567722
PE31   -983.617183 -27800.058514 -10103.470216    958.127732
PE33  20674.683628  -8321.076964  19489.770311    673.110691
PE36 -29031.805244  -4931.949788  -3011.962333    601.622363
PG01  22617.189476  13780.166924   3412.335771   -129.231383
PG02  -9151.777518 -19538.966522  16212.713795    -86.237845
PG03  13504.202139   9628.709745  20719.968732    169.695534
PG04  -4116.399681  17896.023408 -19230.342206    -98.921497
PG05  -3674.386846 -25000.809575  -7956.836897      0.388188
PG06   4686.620012 -14753.846278  21617.576687    315.985239
PG07  21333.574261   2206.699990 -15715.214841     70.199645
PG08  12507.807242  10163.222017 -21093.591469   -125.644117
PG09  24955.039681  -6598.687147   6233.442560    482.959333
PG10 -11224.875805  20093.699465 -13045.302212    151.263556
PG11  23409.232253  10344.932830  -7195.892485   -688.373683
PG12 -10913.021138 -13829.367473  19741.602124    284.351311
PG13  -4030.806484 -14570.931746 -21954.628630    -81.521067
PG14 -11945.693100  16797.657585  16951.853978    -94.607397
PG15 -16465.450452  -7750.398160 -19713.504175   -336.186452
PG16    568.652036  25139.134288  -8003.054550     -6.755631
PG17  19960.580199 -14659.161336   9849.516571    -18.360213
PG18  18521.360923  18053.965818  -6841.044674      5.657234
PG19  12808.983088 -15979.936549  16681.436561   -373.687385
PG20 -14297.369219  11470.987082 -19298.922332    519.967051
PG21 -19607.315895   1862.471303 -16980.510099   -287.008845
PG22  11950.553778  17019.907087  16774.559034   -599.095910
PG23  22401.838114   1447.572366  14812.818438   -203.480759
PG24 -21610.662594 -15671.048489  -1650.388311    -59.521839
PG26  -4004.106996  26041.418747   2566.924352     68.243810
PG27   1637.250707  15283.624108 -21709.966220    -32.653865
PG28  12869.879264 -18377.178216 -13652.466053    758.569620
PG29 -24879.943318   3002.784383   8778.441248    315.030752
PG30  14086.093835  -8225.415672 -20969.659651    -20.094297
PG31  -2599.327934  16285.593798  20742.947556     72.705472
PG32 -17893.724197  16396.772137  10710.612767   -317.825650
PJ01 -22030.071920  33351.896376  -8861.160348   -241.592229
PJ02 -24203.617375  22383.070841  31053.087403     -0.842869
PJ03 -33989.101027  22398.003824  -5876.373003      2.042251
PJ07 -25416.289576  33643.897437     28.987852    366.224000
PR01  15423.014552 -19588.196417   5354.311927     36.468019
PR02   5358.100265 -20482.129136 -14238.071610    344.501215
PR03  -7441.285987  -8546.933085 -22824.739052    151.695569
PR04 -15920.408885   8872.448538 -17830.096018    287.503626
PR05 -14983.184019  20392.590671  -3120.747285     17.716952
PR07   7809.473751   8062.102875  22929.306649    -53.758908
PR08  15790.066022  -8174.450606  18336.153772     19.992534
PR09   7710.417492  23267.151343   7194.819687     43.843420
PR10  14127.761284  19260.229941  -9075.420778     37.672988
PR11  13257.863529   3424.194342 -21512.673742    -50.233904
PR13  -7536.152223 -22949.421902  -8210.204658    -17.930472
PR14 -14334.779164 -19071.034730   9029.840160     33.984301
PR15 -13376.392298  -4326.045410  21309.860555     98.875156
PR16  -4816.375364  12901.057666  21426.313388    108.797056
PR17 -19196.245532  -7984.740856  14820.986137    188.057115
PR18 -25426.007651   -932.585676  -1350.175176     28.156186
PR19 -17993.607523   6202.600913 -16981.398806    -62.126870
PR20   1580.483594  10574.145525 -23149.813706   -362.398842
PR21  19531.007638   7760.887795 -14428.721166    -19.995103
PR22  25283.827789   -108.329351   3834.460589    -64.470051
PR23  13813.001624  -8116.511071  19845.215475    196.939532
PR24  -3281.101720 -10601.605240  22946.637519   -174.941275
PR26   -348.727378  10502.290229 -23227.215616     10.115167
EOF
